[{"OBJECT_NAME":"STARLINK-32303","OBJECT_ID":"2024-207A","EPOCH":"2026-03-09T22:59:18.443040","MEAN_MOTION":15.2760047,"ECCENTRICITY":3.743e-5,"INCLINATION":42.9966,"RA_OF_ASC_NODE":280.1797,"ARG_OF_PERICENTER":233.7502,"MEAN_ANOMALY":126.3315,"EPHEMERIS_TYPE":0,"CLASSIFICATION_TYPE":"U","NORAD_CAT_ID":61912,"ELEMENT_SET_NO":999,"REV_AT_EPOCH":7535,"BSTAR":0.0014940722,"MEAN_MOTION_DOT":0.00041107,"MEAN_MOTION_DDOT":0},{"OBJECT_NAME":"PUCP-SAT 1","OBJECT_ID":"2013-066AC","EPOCH":"2026-03-09T22:02:13.763904","MEAN_MOTION":15.29426022,"ECCENTRICITY":0.00136836,"INCLINATION":97.5787,"RA_OF_ASC_NODE":61.0032,"ARG_OF_PERICENTER":300.1183,"MEAN_ANOMALY":59.87,"EPHEMERIS_TYPE":0,"CLASSIFICATION_TYPE":"U","NORAD_CAT_ID":39442,"ELEMENT_SET_NO":999,"REV_AT_EPOCH":66907,"BSTAR":0.00088755185,"MEAN_MOTION_DOT":0.00025373,"MEAN_MOTION_DDOT":0}]
